STARLINK-36071          
1 66808U 25278T   25360.75003471 -.00054712  00000+0 -93316-3 0  9990
2 66808  42.9998 168.2160 0001403 267.8727  23.4022 15.50583239  5214
STARLINK-35979          
1 66809U 25278U   25360.75003471  .00079685  00000+0  13536-2 0  9990
2 66809  42.9999 168.2010 0001600 273.9899  23.0558 15.50511031  5218
STARLINK-36046          
1 66810U 25278V   25360.75003471 -.00061943  00000+0 -10581-2 0  9999
2 66810  42.9997 168.2114 0001328 270.6918  22.5001 15.50586587  4984
STARLINK-36045          
1 66811U 25278W   25360.75003471 -.00052413  00000+0 -89347-3 0  9999
2 66811  42.9998 168.2061 0001335 272.7879  22.3190 15.50582192  5216
STARLINK-36054          
1 66812U 25278X   25360.75003471 -.00048793  00000+0 -83101-3 0  9998
2 66812  42.9998 168.1965 0001439 273.8920  25.0490 15.50580876  5213
STARLINK-36042          
1 66813U 25278Y   25360.75003471 -.00061902  00000+0 -10574-2 0  9999
2 66813  42.9998 168.1910 0001350 264.4440  36.4184 15.50586315  5219
STARLINK-35984          
1 66814U 25278Z   25360.75003471 -.02069072  00000+0 -43337-1 0  9990
2 66814  42.9996 168.1684 0001377 262.3458  47.5174 15.48079110  5298
STARLINK-35985          
1 66815U 25278AA  25360.75003471  .00065644  00000+0  11180-2 0  9990
2 66815  42.9998 168.1672 0001522 278.5658  31.9067 15.50512606  5294
STARLINK-36098          
1 66816U 25278AB  25360.75003471 -.00061369  00000+0 -10482-2 0  9997
2 66816  42.9998 168.1863 0001384 265.8762  36.9016 15.50586846  5058
STARLINK-35995          
1 66817U 25278AC  25360.75003471  .00071425  00000+0  12154-2 0  9998
2 66817  43.0000 168.1772 0001495 276.3567  30.2889 15.50505790  5219
STARLINK-35994          
1 66818U 25278AD  25360.75003471 -.02232975  00000+0 -55495-1 0  9996
2 66818  42.9999 168.2419 0001808 273.9023   6.2583 15.42838636  5215
STARLINK-35989          
1 66819U 25278AE  25360.75003471 -.00063559  00000+0 -10860-2 0  9993
2 66819  42.9998 168.1716 0001352 271.9172  36.6099 15.50589023  5212
