CCSDS_OMM_VERS = 2.0
CREATION_DATE  = 
ORIGINATOR     = 

OBJECT_NAME    = STARLINK-36071
OBJECT_ID      = 2025-278T
CENTER_NAME    = EARTH
REF_FRAME      = TEME
TIME_SYSTEM    = UTC
MEAN_ELEMENT_THEORY = SGP/SGP4

EPOCH          = 2025-12-26T18:00:02.998944
MEAN_MOTION    = 15.50583239
ECCENTRICITY   = .0001403
INCLINATION    = 42.9998
RA_OF_ASC_NODE = 168.2160
ARG_OF_PERICENTER = 267.8727
MEAN_ANOMALY   = 23.4022

EPHEMERIS_TYPE = 0
CLASSIFICATION_TYPE = U
NORAD_CAT_ID   = 66808
ELEMENT_SET_NO = 999
REV_AT_EPOCH   = 521
BSTAR          = -.93316E-3
MEAN_MOTION_DOT = -.54712E-3
MEAN_MOTION_DDOT = 0

CCSDS_OMM_VERS = 2.0
CREATION_DATE  = 
ORIGINATOR     = 

OBJECT_NAME    = STARLINK-35979
OBJECT_ID      = 2025-278U
CENTER_NAME    = EARTH
REF_FRAME      = TEME
TIME_SYSTEM    = UTC
MEAN_ELEMENT_THEORY = SGP/SGP4

EPOCH          = 2025-12-26T18:00:02.998944
MEAN_MOTION    = 15.50511031
ECCENTRICITY   = .00016
INCLINATION    = 42.9999
RA_OF_ASC_NODE = 168.2010
ARG_OF_PERICENTER = 273.9899
MEAN_ANOMALY   = 23.0558

EPHEMERIS_TYPE = 0
CLASSIFICATION_TYPE = U
NORAD_CAT_ID   = 66809
ELEMENT_SET_NO = 999
REV_AT_EPOCH   = 521
BSTAR          = .13536E-2
MEAN_MOTION_DOT = .79685E-3
MEAN_MOTION_DDOT = 0

CCSDS_OMM_VERS = 2.0
CREATION_DATE  = 
ORIGINATOR     = 

OBJECT_NAME    = STARLINK-36046
OBJECT_ID      = 2025-278V
CENTER_NAME    = EARTH
REF_FRAME      = TEME
TIME_SYSTEM    = UTC
MEAN_ELEMENT_THEORY = SGP/SGP4

EPOCH          = 2025-12-26T18:00:02.998944
MEAN_MOTION    = 15.50586587
ECCENTRICITY   = .0001328
INCLINATION    = 42.9997
RA_OF_ASC_NODE = 168.2114
ARG_OF_PERICENTER = 270.6918
MEAN_ANOMALY   = 22.5001

EPHEMERIS_TYPE = 0
CLASSIFICATION_TYPE = U
NORAD_CAT_ID   = 66810
ELEMENT_SET_NO = 999
REV_AT_EPOCH   = 498
BSTAR          = -.10581E-2
MEAN_MOTION_DOT = -.61943E-3
MEAN_MOTION_DDOT = 0

CCSDS_OMM_VERS = 2.0
CREATION_DATE  = 
ORIGINATOR     = 

OBJECT_NAME    = STARLINK-36045
OBJECT_ID      = 2025-278W
CENTER_NAME    = EARTH
REF_FRAME      = TEME
TIME_SYSTEM    = UTC
MEAN_ELEMENT_THEORY = SGP/SGP4

EPOCH          = 2025-12-26T18:00:02.998944
MEAN_MOTION    = 15.50582192
ECCENTRICITY   = .0001335
INCLINATION    = 42.9998
RA_OF_ASC_NODE = 168.2061
ARG_OF_PERICENTER = 272.7879
MEAN_ANOMALY   = 22.3190

EPHEMERIS_TYPE = 0
CLASSIFICATION_TYPE = U
NORAD_CAT_ID   = 66811
ELEMENT_SET_NO = 999
REV_AT_EPOCH   = 521
BSTAR          = -.89347E-3
MEAN_MOTION_DOT = -.52413E-3
MEAN_MOTION_DDOT = 0

CCSDS_OMM_VERS = 2.0
CREATION_DATE  = 
ORIGINATOR     = 

OBJECT_NAME    = STARLINK-36054
OBJECT_ID      = 2025-278X
CENTER_NAME    = EARTH
REF_FRAME      = TEME
TIME_SYSTEM    = UTC
MEAN_ELEMENT_THEORY = SGP/SGP4

EPOCH          = 2025-12-26T18:00:02.998944
MEAN_MOTION    = 15.50580876
ECCENTRICITY   = .0001439
INCLINATION    = 42.9998
RA_OF_ASC_NODE = 168.1965
ARG_OF_PERICENTER = 273.8920
MEAN_ANOMALY   = 25.0490

EPHEMERIS_TYPE = 0
CLASSIFICATION_TYPE = U
NORAD_CAT_ID   = 66812
ELEMENT_SET_NO = 999
REV_AT_EPOCH   = 521
BSTAR          = -.83101E-3
MEAN_MOTION_DOT = -.48793E-3
MEAN_MOTION_DDOT = 0

CCSDS_OMM_VERS = 2.0
CREATION_DATE  = 
ORIGINATOR     = 

OBJECT_NAME    = STARLINK-36042
OBJECT_ID      = 2025-278Y
CENTER_NAME    = EARTH
REF_FRAME      = TEME
TIME_SYSTEM    = UTC
MEAN_ELEMENT_THEORY = SGP/SGP4

EPOCH          = 2025-12-26T18:00:02.998944
MEAN_MOTION    = 15.50586315
ECCENTRICITY   = .000135
INCLINATION    = 42.9998
RA_OF_ASC_NODE = 168.1910
ARG_OF_PERICENTER = 264.4440
MEAN_ANOMALY   = 36.4184

EPHEMERIS_TYPE = 0
CLASSIFICATION_TYPE = U
NORAD_CAT_ID   = 66813
ELEMENT_SET_NO = 999
REV_AT_EPOCH   = 521
BSTAR          = -.10574E-2
MEAN_MOTION_DOT = -.61902E-3
MEAN_MOTION_DDOT = 0

CCSDS_OMM_VERS = 2.0
CREATION_DATE  = 
ORIGINATOR     = 

OBJECT_NAME    = STARLINK-35984
OBJECT_ID      = 2025-278Z
CENTER_NAME    = EARTH
REF_FRAME      = TEME
TIME_SYSTEM    = UTC
MEAN_ELEMENT_THEORY = SGP/SGP4

EPOCH          = 2025-12-26T18:00:02.998944
MEAN_MOTION    = 15.48079110
ECCENTRICITY   = .0001377
INCLINATION    = 42.9996
RA_OF_ASC_NODE = 168.1684
ARG_OF_PERICENTER = 262.3458
MEAN_ANOMALY   = 47.5174

EPHEMERIS_TYPE = 0
CLASSIFICATION_TYPE = U
NORAD_CAT_ID   = 66814
ELEMENT_SET_NO = 999
REV_AT_EPOCH   = 529
BSTAR          = -.43337E-1
MEAN_MOTION_DOT = -.2069072E-1
MEAN_MOTION_DDOT = 0

CCSDS_OMM_VERS = 2.0
CREATION_DATE  = 
ORIGINATOR     = 

OBJECT_NAME    = STARLINK-35985
OBJECT_ID      = 2025-278AA
CENTER_NAME    = EARTH
REF_FRAME      = TEME
TIME_SYSTEM    = UTC
MEAN_ELEMENT_THEORY = SGP/SGP4

EPOCH          = 2025-12-26T18:00:02.998944
MEAN_MOTION    = 15.50512606
ECCENTRICITY   = .0001522
INCLINATION    = 42.9998
RA_OF_ASC_NODE = 168.1672
ARG_OF_PERICENTER = 278.5658
MEAN_ANOMALY   = 31.9067

EPHEMERIS_TYPE = 0
CLASSIFICATION_TYPE = U
NORAD_CAT_ID   = 66815
ELEMENT_SET_NO = 999
REV_AT_EPOCH   = 529
BSTAR          = .1118E-2
MEAN_MOTION_DOT = .65644E-3
MEAN_MOTION_DDOT = 0

CCSDS_OMM_VERS = 2.0
CREATION_DATE  = 
ORIGINATOR     = 

OBJECT_NAME    = STARLINK-36098
OBJECT_ID      = 2025-278AB
CENTER_NAME    = EARTH
REF_FRAME      = TEME
TIME_SYSTEM    = UTC
MEAN_ELEMENT_THEORY = SGP/SGP4

EPOCH          = 2025-12-26T18:00:02.998944
MEAN_MOTION    = 15.50586846
ECCENTRICITY   = .0001384
INCLINATION    = 42.9998
RA_OF_ASC_NODE = 168.1863
ARG_OF_PERICENTER = 265.8762
MEAN_ANOMALY   = 36.9016

EPHEMERIS_TYPE = 0
CLASSIFICATION_TYPE = U
NORAD_CAT_ID   = 66816
ELEMENT_SET_NO = 999
REV_AT_EPOCH   = 505
BSTAR          = -.10482E-2
MEAN_MOTION_DOT = -.61369E-3
MEAN_MOTION_DDOT = 0

CCSDS_OMM_VERS = 2.0
CREATION_DATE  = 
ORIGINATOR     = 

OBJECT_NAME    = STARLINK-35995
OBJECT_ID      = 2025-278AC
CENTER_NAME    = EARTH
REF_FRAME      = TEME
TIME_SYSTEM    = UTC
MEAN_ELEMENT_THEORY = SGP/SGP4

EPOCH          = 2025-12-26T18:00:02.998944
MEAN_MOTION    = 15.50505790
ECCENTRICITY   = .0001495
INCLINATION    = 43.0000
RA_OF_ASC_NODE = 168.1772
ARG_OF_PERICENTER = 276.3567
MEAN_ANOMALY   = 30.2889

EPHEMERIS_TYPE = 0
CLASSIFICATION_TYPE = U
NORAD_CAT_ID   = 66817
ELEMENT_SET_NO = 999
REV_AT_EPOCH   = 521
BSTAR          = .12154E-2
MEAN_MOTION_DOT = .71425E-3
MEAN_MOTION_DDOT = 0

CCSDS_OMM_VERS = 2.0
CREATION_DATE  = 
ORIGINATOR     = 

OBJECT_NAME    = STARLINK-35994
OBJECT_ID      = 2025-278AD
CENTER_NAME    = EARTH
REF_FRAME      = TEME
TIME_SYSTEM    = UTC
MEAN_ELEMENT_THEORY = SGP/SGP4

EPOCH          = 2025-12-26T18:00:02.998944
MEAN_MOTION    = 15.42838636
ECCENTRICITY   = .0001808
INCLINATION    = 42.9999
RA_OF_ASC_NODE = 168.2419
ARG_OF_PERICENTER = 273.9023
MEAN_ANOMALY   = 6.2583

EPHEMERIS_TYPE = 0
CLASSIFICATION_TYPE = U
NORAD_CAT_ID   = 66818
ELEMENT_SET_NO = 999
REV_AT_EPOCH   = 521
BSTAR          = -.55495E-1
MEAN_MOTION_DOT = -.2232975E-1
MEAN_MOTION_DDOT = 0

CCSDS_OMM_VERS = 2.0
CREATION_DATE  = 
ORIGINATOR     = 

OBJECT_NAME    = STARLINK-35989
OBJECT_ID      = 2025-278AE
CENTER_NAME    = EARTH
REF_FRAME      = TEME
TIME_SYSTEM    = UTC
MEAN_ELEMENT_THEORY = SGP/SGP4

EPOCH          = 2025-12-26T18:00:02.998944
MEAN_MOTION    = 15.50589023
ECCENTRICITY   = .0001352
INCLINATION    = 42.9998
RA_OF_ASC_NODE = 168.1716
ARG_OF_PERICENTER = 271.9172
MEAN_ANOMALY   = 36.6099

EPHEMERIS_TYPE = 0
CLASSIFICATION_TYPE = U
NORAD_CAT_ID   = 66819
ELEMENT_SET_NO = 999
REV_AT_EPOCH   = 521
BSTAR          = -.1086E-2
MEAN_MOTION_DOT = -.63559E-3
MEAN_MOTION_DDOT = 0

